STARLINK-37632          
1 69374U 26123X   26193.98133897  .00226624  00000+0  11197-2 0  9994
2 69374  53.1574 111.9723 0001249  84.9773 275.1392 15.80914448  6126
STARLINK-37454          
1 69375U 26123Y   26193.95171662  .00211643  00000+0  13482-2 0  9998
2 69375  53.1591 112.5136 0000912  69.5056 290.6062 15.75278640  6116
STARLINK-37485          
1 69376U 26123Z   26193.98316351  .00170452  00000+0  10918-2 0  9991
2 69376  53.1552 112.7209 0000616  66.0388 294.0696 15.75280550  6112
STARLINK-37439          
1 69377U 26123AA  26194.00002315 -.00211774  00000+0 -14070-2 0  9996
2 69377  53.1599 111.9522 0001231  78.7774 351.7795 15.75321805  6082
STARLINK-37376          
1 69378U 26123AB  26194.00131807  .00170998  00000+0  10960-2 0  9990
2 69378  53.1610 112.8431 0000797 102.3548 257.7562 15.75265769  6112
STARLINK-37383          
1 69379U 26123AC  26193.96532822  .00494243  00000+0  30219-2 0  9998
2 69379  53.1632 112.6040 0004583 148.8736 211.2556 15.75403033  6118
STARLINK-37411          
1 69380U 26123AD  26193.97373847  .00169221  00000+0  84104-3 0  9999
2 69380  53.1573 111.9193 0001026  97.7708 262.3431 15.80954459  6124
STARLINK-37427          
1 69381U 26123AE  26193.96963909  .00325143  00000+0  15853-2 0  9994
2 69381  53.1595 111.8932 0001288  39.1355 320.9761 15.80932075  6124
QIANFAN-165             
1 69382U 26124A   26193.84408353 -.01911400  00000+0 -15937+1 0  9991
2 69382  88.9993 359.1619 0005900  80.5127 279.6714 13.92331709  5433
QIANFAN-166             
1 69383U 26124B   26193.81363957 -.01913304  00000+0 -15349+1 0  9991
2 69383  88.9991 359.1575 0008372  96.3150 263.8980 13.94547285  5430
QIANFAN-167             
1 69384U 26124C   26193.83738264 -.02172699  00000+0 -18156+1 0  9995
2 69384  88.9990 359.1608 0008802  89.2577 270.9606 13.92727458  5433
QIANFAN-168             
1 69385U 26124D   26193.73547022 -.01969488  00000+0 -16184+1 0  9993
2 69385  88.9993 359.1633 0008293  91.0255 269.1870 13.93280970  5429
QIANFAN-169             
1 69386U 26124E   26193.79313683 -.01901274  00000+0 -15311+1 0  9994
2 69386  88.9989 359.1530 0009858  97.7140 262.5155 13.94297420  5438
QIANFAN-170             
1 69387U 26124F   26193.77198427 -.01891744  00000+0 -14759+1 0  9995
2 69387  88.9991 359.1504 0009754  93.8761 266.3531 13.96092845  5430
QIANFAN-171             
1 69388U 26124G   26193.82852733 -.01825081  00000+0 -14388+1 0  9998
2 69388  88.9989 359.1405 0009802 113.4121 246.8087 13.96019834  5448
QIANFAN-172             
1 69389U 26124H   26193.83158867 -.01973676  00000+0 -15114+1 0  9999
2 69389  88.9990 359.1417 0010019  86.9405 273.2919 13.97319378  5440
QIANFAN-173             
1 69390U 26124J   26193.81580110 -.01936338  00000+0 -14801+1 0  9995
2 69390  88.9989 359.1387 0010086  91.5769 268.6563 13.97347617  5445
QIANFAN-174             
1 69391U 26124K   26193.79789294 -.02202889  00000+0 -15746+1 0  9994
2 69391  88.9985 359.1361 0005484 163.9561 196.1793 14.01711143  5438
QIANFAN-175             
1 69392U 26124L   26193.79792727 -.01925776  00000+0 -14576+1 0  9996
2 69392  88.9993 359.1353 0010624  93.4195 266.8198 13.97886597  5446
QIANFAN-176             
1 69393U 26124M   26193.79481747 -.02020938  00000+0 -14895+1 0  9995
2 69393  88.9995 359.1349 0006778  73.8671 286.3253 13.99602377  5432
QIANFAN-177             
1 69394U 26124N   26193.84359898 -.01883355  00000+0 -14064+1 0  9990
2 69394  88.9983 359.1240 0006992 110.0562 250.1369 13.98579802  5455
QIANFAN-178             
1 69395U 26124P   26193.84318676 -.01856699  00000+0 -13567+1 0  9998
2 69395  88.9986 359.1235 0004750 106.5404 253.6297 13.99762571  5454
QIANFAN-179             
1 69396U 26124Q   26193.82721194 -.01805909  00000+0 -13190+1 0  9990
2 69396  88.9988 359.1215 0005242 123.5603 236.6077 14.00332739  5451
QIANFAN-180             
1 69397U 26124R   26193.82709498 -.01888137  00000+0 -13918+1 0  9996
2 69397  88.9990 359.1217 0006739  98.0894 262.1049 13.99323181  5458
QIANFAN-181             
1 69398U 26124S   26193.84155473 -.01818974  00000+0 -15899+1 0  9999
2 69398  88.9990 359.1607 0008244 286.6454  73.3813 13.90060279  5438
QIANFAN-182             
1 69399U 26124T   26193.79315703 -.02001593  00000+0 -16337+1 0  9998
2 69399  88.9996 359.1547 0009073  94.3071 265.9142 13.93734387  5422
QIANFAN-183             
1 69401U 26125A   26193.75621091 -.01953953  00000+0 -14914+1 0  9993
2 69401  88.9938 277.5700 0022316  95.5106 264.8617 13.97372483  5315
QIANFAN-184             
1 69402U 26125B   26193.74337510 -.01919880  00000+0 -14635+1 0  9994
2 69402  88.9946 277.5681 0022603  90.9181 269.4586 13.97374480  5319
QIANFAN-185             
1 69403U 26125C   26194.10955737  .00000188  00000+0  10727-3 0  9993
2 69403  88.9949 277.5293 0018463  88.8458 271.4839 14.05243559  5365
QIANFAN-186             
1 69404U 26125D   26193.73060914 -.01817078  00000+0 -14198+1 0  9996
2 69404  88.9945 277.5659 0022567  94.7727 265.6027 13.96411149  5313
