OBJECT_NAME,OBJECT_ID,EPOCH,MEAN_MOTION,ECCENTRICITY,INCLINATION,RA_OF_ASC_NODE,ARG_OF_PERICENTER,MEAN_ANOMALY,EPHEMERIS_TYPE,CLASSIFICATION_TYPE,NORAD_CAT_ID,ELEMENT_SET_NO,REV_AT_EPOCH,BSTAR,MEAN_MOTION_DOT,MEAN_MOTION_DDOT
STARLINK-37632,2026-123X,2026-07-12T23:33:07.687008,15.80914448,.0001249,53.1574,111.9723,84.9773,275.1392,0,U,69374,999,612,.11197E-2,.226624E-2,0
STARLINK-37454,2026-123Y,2026-07-12T22:50:28.315968,15.75278640,.0000912,53.1591,112.5136,69.5056,290.6062,0,U,69375,999,611,.13482E-2,.211643E-2,0
STARLINK-37485,2026-123Z,2026-07-12T23:35:45.327264,15.75280550,.0000616,53.1552,112.7209,66.0388,294.0696,0,U,69376,999,611,.10918E-2,.170452E-2,0
STARLINK-37439,2026-123AA,2026-07-13T00:00:02.000160,15.75321805,.0001231,53.1599,111.9522,78.7774,351.7795,0,U,69377,999,608,-.1407E-2,-.211774E-2,0
STARLINK-37376,2026-123AB,2026-07-13T00:01:53.881248,15.75265769,.0000797,53.1610,112.8431,102.3548,257.7562,0,U,69378,999,611,.1096E-2,.170998E-2,0
STARLINK-37383,2026-123AC,2026-07-12T23:10:04.358208,15.75403033,.0004583,53.1632,112.6040,148.8736,211.2556,0,U,69379,999,611,.30219E-2,.494243E-2,0
STARLINK-37411,2026-123AD,2026-07-12T23:22:11.003808,15.80954459,.0001026,53.1573,111.9193,97.7708,262.3431,0,U,69380,999,612,.84104E-3,.169221E-2,0
STARLINK-37427,2026-123AE,2026-07-12T23:16:16.817376,15.80932075,.0001288,53.1595,111.8932,39.1355,320.9761,0,U,69381,999,612,.15853E-2,.325143E-2,0
QIANFAN-165,2026-124A,2026-07-12T20:15:28.816992,13.92331709,.00059,88.9993,359.1619,80.5127,279.6714,0,U,69382,999,543,-.15937E+1,-.19114E-1,0
QIANFAN-166,2026-124B,2026-07-12T19:31:38.458848,13.94547285,.0008372,88.9991,359.1575,96.3150,263.8980,0,U,69383,999,543,-.15349E+1,-.1913304E-1,0
QIANFAN-167,2026-124C,2026-07-12T20:05:49.860096,13.92727458,.0008802,88.9990,359.1608,89.2577,270.9606,0,U,69384,999,543,-.18156E+1,-.2172699E-1,0
QIANFAN-168,2026-124D,2026-07-12T17:39:04.627008,13.93280970,.0008293,88.9993,359.1633,91.0255,269.1870,0,U,69385,999,542,-.16184E+1,-.1969488E-1,0
QIANFAN-169,2026-124E,2026-07-12T19:02:07.022112,13.94297420,.0009858,88.9989,359.1530,97.7140,262.5155,0,U,69386,999,543,-.15311E+1,-.1901274E-1,0
QIANFAN-170,2026-124F,2026-07-12T18:31:39.440928,13.96092845,.0009754,88.9991,359.1504,93.8761,266.3531,0,U,69387,999,543,-.14759E+1,-.1891744E-1,0
QIANFAN-171,2026-124G,2026-07-12T19:53:04.761312,13.96019834,.0009802,88.9989,359.1405,113.4121,246.8087,0,U,69388,999,544,-.14388E+1,-.1825081E-1,0
QIANFAN-172,2026-124H,2026-07-12T19:57:29.261088,13.97319378,.0010019,88.9990,359.1417,86.9405,273.2919,0,U,69389,999,544,-.15114E+1,-.1973676E-1,0
QIANFAN-173,2026-124J,2026-07-12T19:34:45.215040,13.97347617,.0010086,88.9989,359.1387,91.5769,268.6563,0,U,69390,999,544,-.14801E+1,-.1936338E-1,0
QIANFAN-174,2026-124K,2026-07-12T19:08:57.950016,14.01711143,.0005484,88.9985,359.1361,163.9561,196.1793,0,U,69391,999,543,-.15746E+1,-.2202889E-1,0
QIANFAN-175,2026-124L,2026-07-12T19:09:00.916128,13.97886597,.0010624,88.9993,359.1353,93.4195,266.8198,0,U,69392,999,544,-.14576E+1,-.1925776E-1,0
QIANFAN-176,2026-124M,2026-07-12T19:04:32.229408,13.99602377,.0006778,88.9995,359.1349,73.8671,286.3253,0,U,69393,999,543,-.14895E+1,-.2020938E-1,0
QIANFAN-177,2026-124N,2026-07-12T20:14:46.951872,13.98579802,.0006992,88.9983,359.1240,110.0562,250.1369,0,U,69394,999,545,-.14064E+1,-.1883355E-1,0
QIANFAN-178,2026-124P,2026-07-12T20:14:11.336064,13.99762571,.000475,88.9986,359.1235,106.5404,253.6297,0,U,69395,999,545,-.13567E+1,-.1856699E-1,0
QIANFAN-179,2026-124Q,2026-07-12T19:51:11.111616,14.00332739,.0005242,88.9988,359.1215,123.5603,236.6077,0,U,69396,999,545,-.1319E+1,-.1805909E-1,0
QIANFAN-180,2026-124R,2026-07-12T19:51:01.006272,13.99323181,.0006739,88.9990,359.1217,98.0894,262.1049,0,U,69397,999,545,-.13918E+1,-.1888137E-1,0
QIANFAN-181,2026-124S,2026-07-12T20:11:50.328672,13.90060279,.0008244,88.9990,359.1607,286.6454,73.3813,0,U,69398,999,543,-.15899E+1,-.1818974E-1,0
QIANFAN-182,2026-124T,2026-07-12T19:02:08.767392,13.93734387,.0009073,88.9996,359.1547,94.3071,265.9142,0,U,69399,999,542,-.16337E+1,-.2001593E-1,0
QIANFAN-183,2026-125A,2026-07-12T18:08:56.622624,13.97372483,.0022316,88.9938,277.5700,95.5106,264.8617,0,U,69401,999,531,-.14914E+1,-.1953953E-1,0
QIANFAN-184,2026-125B,2026-07-12T17:50:27.608640,13.97374480,.0022603,88.9946,277.5681,90.9181,269.4586,0,U,69402,999,531,-.14635E+1,-.191988E-1,0
QIANFAN-185,2026-125C,2026-07-13T02:37:45.756768,14.05243559,.0018463,88.9949,277.5293,88.8458,271.4839,0,U,69403,999,536,.10727E-3,.188E-5,0
QIANFAN-186,2026-125D,2026-07-12T17:32:04.629696,13.96411149,.0022567,88.9945,277.5659,94.7727,265.6027,0,U,69404,999,531,-.14198E+1,-.1817078E-1,0
